[{"OBJECT_NAME":"ONEWEB-0044","OBJECT_ID":"2020-008V","EPOCH":"2026-06-09T05:08:58.461792","MEAN_MOTION":13.1036971,"ECCENTRICITY":0.000186,"INCLINATION":87.8848,"RA_OF_ASC_NODE":37.8541,"ARG_OF_PERICENTER":75.931,"MEAN_ANOMALY":284.2024,"EPHEMERIS_TYPE":0,"CLASSIFICATION_TYPE":"U","NORAD_CAT_ID":45150,"ELEMENT_SET_NO":999,"REV_AT_EPOCH":30743,"BSTAR":-0.0011475,"MEAN_MOTION_DOT":-3.88e-06,"MEAN_MOTION_DDOT":0.0},{"OBJECT_NAME":"ONEWEB-0045","OBJECT_ID":"2020-008W","EPOCH":"2026-06-09T01:49:43.434624","MEAN_MOTION":13.11416058,"ECCENTRICITY":0.0001817,"INCLINATION":87.8903,"RA_OF_ASC_NODE":22.6734,"ARG_OF_PERICENTER":79.8921,"MEAN_ANOMALY":280.2412,"EPHEMERIS_TYPE":0,"CLASSIFICATION_TYPE":"U","NORAD_CAT_ID":45151,"ELEMENT_SET_NO":999,"REV_AT_EPOCH":30934,"BSTAR":0.0013775999999999999,"MEAN_MOTION_DOT":5.01e-06,"MEAN_MOTION_DDOT":0.0},{"OBJECT_NAME":"ONEWEB-0047","OBJECT_ID":"2020-008X","EPOCH":"2026-06-09T04:59:13.769664","MEAN_MOTION":13.10369958,"ECCENTRICITY":0.0001596,"INCLINATION":87.8845,"RA_OF_ASC_NODE":37.8551,"ARG_OF_PERICENTER":81.625,"MEAN_ANOMALY":278.5058,"EPHEMERIS_TYPE":0,"CLASSIFICATION_TYPE":"U","NORAD_CAT_ID":45152,"ELEMENT_SET_NO":999,"REV_AT_EPOCH":30715,"BSTAR":-0.00015197,"MEAN_MOTION_DOT":-4e-07,"MEAN_MOTION_DDOT":0.0},{"OBJECT_NAME":"ONEWEB-0048","OBJECT_ID":"2020-008Y","EPOCH":"2026-06-09T04:52:15.515904","MEAN_MOTION":13.10369922,"ECCENTRICITY":0.0001746,"INCLINATION":87.8835,"RA_OF_ASC_NODE":37.8779,"ARG_OF_PERICENTER":81.5838,"MEAN_ANOMALY":278.5487,"EPHEMERIS_TYPE":0,"CLASSIFICATION_TYPE":"U","NORAD_CAT_ID":45153,"ELEMENT_SET_NO":999,"REV_AT_EPOCH":30676,"BSTAR":0.0006587300000000001,"MEAN_MOTION_DOT":2.43e-06,"MEAN_MOTION_DDOT":0.0},{"OBJECT_NAME":"ONEWEB-0049","OBJECT_ID":"2020-008Z","EPOCH":"2026-06-09T04:56:50.580672","MEAN_MOTION":13.10369135,"ECCENTRICITY":0.0002229,"INCLINATION":87.884,"RA_OF_ASC_NODE":37.8665,"ARG_OF_PERICENTER":84.8025,"MEAN_ANOMALY":275.3356,"EPHEMERIS_TYPE":0,"CLASSIFICATION_TYPE":"U","NORAD_CAT_ID":45154,"ELEMENT_SET_NO":999,"REV_AT_EPOCH":30698,"BSTAR":4.8923e-05,"MEAN_MOTION_DOT":3e-07,"MEAN_MOTION_DDOT":0.0},{"OBJECT_NAME":"ONEWEB-0051","OBJECT_ID":"2020-008AA","EPOCH":"2026-06-09T01:47:17.718432","MEAN_MOTION":13.11416185,"ECCENTRICITY":0.0001825,"INCLINATION":87.8895,"RA_OF_ASC_NODE":22.6819,"ARG_OF_PERICENTER":83.679,"MEAN_ANOMALY":276.4545,"EPHEMERIS_TYPE":0,"CLASSIFICATION_TYPE":"U","NORAD_CAT_ID":45155,"ELEMENT_SET_NO":999,"REV_AT_EPOCH":31002,"BSTAR":0.0013894,"MEAN_MOTION_DOT":5.05e-06,"MEAN_MOTION_DDOT":0.0},{"OBJECT_NAME":"ONEWEB-0052","OBJECT_ID":"2020-008AB","EPOCH":"2026-06-09T01:45:59.599872","MEAN_MOTION":13.10372888,"ECCENTRICITY":0.0002231,"INCLINATION":87.8847,"RA_OF_ASC_NODE":37.8795,"ARG_OF_PERICENTER":83.5137,"MEAN_ANOMALY":276.6245,"EPHEMERIS_TYPE":0,"CLASSIFICATION_TYPE":"U","NORAD_CAT_ID":45156,"ELEMENT_SET_NO":999,"REV_AT_EPOCH":30687,"BSTAR":-0.0017541000000000002,"MEAN_MOTION_DOT":-6e-06,"MEAN_MOTION_DDOT":0.0},{"OBJECT_NAME":"ONEWEB-0053","OBJECT_ID":"2020-008AC","EPOCH":"2026-06-09T04:23:35.413728","MEAN_MOTION":13.10373999,"ECCENTRICITY":0.0002249,"INCLINATION":87.884,"RA_OF_ASC_NODE":37.8787,"ARG_OF_PERICENTER":74.0972,"MEAN_ANOMALY":286.0403,"EPHEMERIS_TYPE":0,"CLASSIFICATION_TYPE":"U","NORAD_CAT_ID":45157,"ELEMENT_SET_NO":999,"REV_AT_EPOCH":30686,"BSTAR":0.0017277000000000002,"MEAN_MOTION_DOT":6.16e-06,"MEAN_MOTION_DDOT":0.0},{"OBJECT_NAME":"ONEWEB-0054","OBJECT_ID":"2020-008AD","EPOCH":"2026-06-09T05:13:45.019488","MEAN_MOTION":13.10369993,"ECCENTRICITY":0.0001872,"INCLINATION":87.8848,"RA_OF_ASC_NODE":37.8539,"ARG_OF_PERICENTER":83.1862,"MEAN_ANOMALY":276.9479,"EPHEMERIS_TYPE":0,"CLASSIFICATION_TYPE":"U","NORAD_CAT_ID":45158,"ELEMENT_SET_NO":999,"REV_AT_EPOCH":30698,"BSTAR":-0.0012257,"MEAN_MOTION_DOT":-4.15e-06,"MEAN_MOTION_DDOT":0.0},{"OBJECT_NAME":"ONEWEB-0056","OBJECT_ID":"2020-008AE","EPOCH":"2026-06-09T04:32:59.255808","MEAN_MOTION":13.10373822,"ECCENTRICITY":0.0001926,"INCLINATION":87.8846,"RA_OF_ASC_NODE":37.8532,"ARG_OF_PERICENTER":90.0303,"MEAN_ANOMALY":270.1045,"EPHEMERIS_TYPE":0,"CLASSIFICATION_TYPE":"U","NORAD_CAT_ID":45159,"ELEMENT_SET_NO":999,"REV_AT_EPOCH":30713,"BSTAR":0.0020087,"MEAN_MOTION_DOT":7.14e-06,"MEAN_MOTION_DDOT":0.0},{"OBJECT_NAME":"ONEWEB-0057","OBJECT_ID":"2020-008AF","EPOCH":"2026-06-09T04:57:13.932000","MEAN_MOTION":13.10369182,"ECCENTRICITY":0.0002244,"INCLINATION":87.884,"RA_OF_ASC_NODE":37.8624,"ARG_OF_PERICENTER":74.6235,"MEAN_ANOMALY":285.514,"EPHEMERIS_TYPE":0,"CLASSIFICATION_TYPE":"U","NORAD_CAT_ID":45160,"ELEMENT_SET_NO":999,"REV_AT_EPOCH":30730,"BSTAR":2.1566e-05,"MEAN_MOTION_DOT":2e-07,"MEAN_MOTION_DDOT":0.0},{"OBJECT_NAME":"ONEWEB-0058","OBJECT_ID":"2020-008AG","EPOCH":"2026-06-09T04:38:07.701216","MEAN_MOTION":13.10370678,"ECCENTRICITY":0.0001579,"INCLINATION":87.8837,"RA_OF_ASC_NODE":37.8715,"ARG_OF_PERICENTER":79.0715,"MEAN_ANOMALY":281.059,"EPHEMERIS_TYPE":0,"CLASSIFICATION_TYPE":"U","NORAD_CAT_ID":45161,"ELEMENT_SET_NO":999,"REV_AT_EPOCH":30737,"BSTAR":0.0016879,"MEAN_MOTION_DOT":6.02e-06,"MEAN_MOTION_DDOT":0.0},{"OBJECT_NAME":"ONEWEB-0059","OBJECT_ID":"2020-008AH","EPOCH":"2026-06-09T04:33:21.170304","MEAN_MOTION":13.10371719,"ECCENTRICITY":0.0001726,"INCLINATION":87.8837,"RA_OF_ASC_NODE":37.871,"ARG_OF_PERICENTER":75.1741,"MEAN_ANOMALY":284.9577,"EPHEMERIS_TYPE":0,"CLASSIFICATION_TYPE":"U","NORAD_CAT_ID":45162,"ELEMENT_SET_NO":999,"REV_AT_EPOCH":30727,"BSTAR":0.0019342,"MEAN_MOTION_DOT":6.88e-06,"MEAN_MOTION_DDOT":0.0},{"OBJECT_NAME":"ONEWEB-0062","OBJECT_ID":"2020-008AJ","EPOCH":"2026-06-09T05:06:23.382432","MEAN_MOTION":13.10369791,"ECCENTRICITY":0.000139,"INCLINATION":87.8846,"RA_OF_ASC_NODE":37.8533,"ARG_OF_PERICENTER":87.7695,"MEAN_ANOMALY":272.3592,"EPHEMERIS_TYPE":0,"CLASSIFICATION_TYPE":"U","NORAD_CAT_ID":45163,"ELEMENT_SET_NO":999,"REV_AT_EPOCH":30714,"BSTAR":-0.00081757,"MEAN_MOTION_DOT":-2.73e-06,"MEAN_MOTION_DDOT":0.0},{"OBJECT_NAME":"ONEWEB-0065","OBJECT_ID":"2020-008AK","EPOCH":"2026-06-09T04:04:15.088512","MEAN_MOTION":13.10375537,"ECCENTRICITY":0.0002175,"INCLINATION":87.8848,"RA_OF_ASC_NODE":37.8699,"ARG_OF_PERICENTER":81.8693,"MEAN_ANOMALY":278.2681,"EPHEMERIS_TYPE":0,"CLASSIFICATION_TYPE":"U","NORAD_CAT_ID":45164,"ELEMENT_SET_NO":999,"REV_AT_EPOCH":30683,"BSTAR":0.00026731,"MEAN_MOTION_DOT":1.06e-06,"MEAN_MOTION_DDOT":0.0},{"OBJECT_NAME":"ONEWEB-0066","OBJECT_ID":"2020-020A","EPOCH":"2026-06-09T01:25:17.835744","MEAN_MOTION":13.11419401,"ECCENTRICITY":0.0001736,"INCLINATION":87.8895,"RA_OF_ASC_NODE":22.6894,"ARG_OF_PERICENTER":78.391,"MEAN_ANOMALY":281.7413,"EPHEMERIS_TYPE":0,"CLASSIFICATION_TYPE":"U","NORAD_CAT_ID":45424,"ELEMENT_SET_NO":999,"REV_AT_EPOCH":30161,"BSTAR":0.0012882,"MEAN_MOTION_DOT":4.69e-06,"MEAN_MOTION_DDOT":0.0},{"OBJECT_NAME":"ONEWEB-0067","OBJECT_ID":"2020-020B","EPOCH":"2026-06-09T04:09:46.386720","MEAN_MOTION":13.11422208,"ECCENTRICITY":0.0001982,"INCLINATION":87.8914,"RA_OF_ASC_NODE":22.5867,"ARG_OF_PERICENTER":82.3317,"MEAN_ANOMALY":277.8036,"EPHEMERIS_TYPE":0,"CLASSIFICATION_TYPE":"U","NORAD_CAT_ID":45425,"ELEMENT_SET_NO":999,"REV_AT_EPOCH":30168,"BSTAR":-0.0010982000000000001,"MEAN_MOTION_DOT":-3.77e-06,"MEAN_MOTION_DDOT":0.0},{"OBJECT_NAME":"ONEWEB-0080","OBJECT_ID":"2020-020C","EPOCH":"2026-06-09T04:09:04.469760","MEAN_MOTION":13.11415366,"ECCENTRICITY":0.0001522,"INCLINATION":87.8903,"RA_OF_ASC_NODE":22.662,"ARG_OF_PERICENTER":88.7356,"MEAN_ANOMALY":271.3946,"EPHEMERIS_TYPE":0,"CLASSIFICATION_TYPE":"U","NORAD_CAT_ID":45426,"ELEMENT_SET_NO":999,"REV_AT_EPOCH":30165,"BSTAR":-0.0008722,"MEAN_MOTION_DOT":-2.96e-06,"MEAN_MOTION_DDOT":0.0},{"OBJECT_NAME":"ONEWEB-0090","OBJECT_ID":"2020-020D","EPOCH":"2026-06-09T03:00:42.261696","MEAN_MOTION":13.11425879,"ECCENTRICITY":0.0002169,"INCLINATION":87.8904,"RA_OF_ASC_NODE":22.6762,"ARG_OF_PERICENTER":80.0692,"MEAN_ANOMALY":280.0681,"EPHEMERIS_TYPE":0,"CLASSIFICATION_TYPE":"U","NORAD_CAT_ID":45427,"ELEMENT_SET_NO":999,"REV_AT_EPOCH":30161,"BSTAR":-0.0032826,"MEAN_MOTION_DOT":-1.151e-05,"MEAN_MOTION_DDOT":0.0},{"OBJECT_NAME":"ONEWEB-0061","OBJECT_ID":"2020-020E","EPOCH":"2026-06-09T01:56:50.532288","MEAN_MOTION":13.11416061,"ECCENTRICITY":0.0001751,"INCLINATION":87.8902,"RA_OF_ASC_NODE":22.6696,"ARG_OF_PERICENTER":83.4648,"MEAN_ANOMALY":276.6679,"EPHEMERIS_TYPE":0,"CLASSIFICATION_TYPE":"U","NORAD_CAT_ID":45428,"ELEMENT_SET_NO":999,"REV_AT_EPOCH":30156,"BSTAR":0.0008521,"MEAN_MOTION_DOT":3.15e-06,"MEAN_MOTION_DDOT":0.0},{"OBJECT_NAME":"ONEWEB-0081","OBJECT_ID":"2020-020F","EPOCH":"2026-06-09T01:30:11.192256","MEAN_MOTION":13.1141891,"ECCENTRICITY":0.0001882,"INCLINATION":87.8897,"RA_OF_ASC_NODE":22.6841,"ARG_OF_PERICENTER":77.5667,"MEAN_ANOMALY":282.5671,"EPHEMERIS_TYPE":0,"CLASSIFICATION_TYPE":"U","NORAD_CAT_ID":45429,"ELEMENT_SET_NO":999,"REV_AT_EPOCH":30167,"BSTAR":0.0014486,"MEAN_MOTION_DOT":5.26e-06,"MEAN_MOTION_DDOT":0.0},{"OBJECT_NAME":"ONEWEB-0069","OBJECT_ID":"2020-020G","EPOCH":"2026-06-09T01:32:49.109856","MEAN_MOTION":13.1141972,"ECCENTRICITY":0.0001849,"INCLINATION":87.8901,"RA_OF_ASC_NODE":22.6865,"ARG_OF_PERICENTER":81.3265,"MEAN_ANOMALY":278.8072,"EPHEMERIS_TYPE":0,"CLASSIFICATION_TYPE":"U","NORAD_CAT_ID":45430,"ELEMENT_SET_NO":999,"REV_AT_EPOCH":30160,"BSTAR":0.0016808,"MEAN_MOTION_DOT":6.08e-06,"MEAN_MOTION_DDOT":0.0},{"OBJECT_NAME":"ONEWEB-0031","OBJECT_ID":"2020-020H","EPOCH":"2026-06-09T04:13:45.424416","MEAN_MOTION":13.11416232,"ECCENTRICITY":0.0001645,"INCLINATION":87.889,"RA_OF_ASC_NODE":22.6699,"ARG_OF_PERICENTER":88.0784,"MEAN_ANOMALY":272.0532,"EPHEMERIS_TYPE":0,"CLASSIFICATION_TYPE":"U","NORAD_CAT_ID":45431,"ELEMENT_SET_NO":999,"REV_AT_EPOCH":30160,"BSTAR":-0.0010774,"MEAN_MOTION_DOT":-3.69e-06,"MEAN_MOTION_DDOT":0.0}]